{"type": "FeatureCollection", "features": [{"type": "Feature", "properties": {"norad_id": 24876, "name": "GPS BIIR-2  (PRN 13)", "group": "gps-ops", "lat": 15.668139213538643, "lon": 116.51133351103093, "alt_km": 19976.63213422032, "timestamp": "2025-12-20T05:41:50.288902+00:00", "meta": {"OBJECT_NAME": "GPS BIIR-2  (PRN 13)", "OBJECT_ID": "1997-035A", "EPOCH": "2025-12-19T17:06:25.387776", "MEAN_MOTION": 2.0056374, "ECCENTRICITY": 0.00968037, "INCLINATION": 55.8986, "RA_OF_ASC_NODE": 105.5962, "ARG_OF_PERICENTER": 56.9692, "MEAN_ANOMALY": 303.9306, "EPHEMERIS_TYPE": 0, "CLASSIFICATION_TYPE": "U", "NORAD_CAT_ID": 24876, "ELEMENT_SET_NO": 999, "REV_AT_EPOCH": 20835, "BSTAR": 0, "MEAN_MOTION_DOT": -1.2e-07, "MEAN_MOTION_DDOT": 0}, "tle": {"line1": "1 24876U 97035A   25353.71279384 -.00000012  00000+0  00000+0 0  9992", "line2": "2 24876  55.8986 105.5962 0096803  56.9692 303.9306  2.00563740208350"}}, "geometry": {"type": "Point", "coordinates": [116.51133351103093, 15.668139213538643]}}, {"type": "Feature", "properties": {"norad_id": 26360, "name": "GPS BIIR-4  (PRN 20)", "group": "gps-ops", "lat": 49.75537840631387, "lon": 150.86474242978082, "alt_km": 20244.09646704923, "timestamp": "2025-12-20T05:41:50.288932+00:00", "meta": {"OBJECT_NAME": "GPS BIIR-4  (PRN 20)", "OBJECT_ID": "2000-025A", "EPOCH": "2025-12-19T04:51:32.040288", "MEAN_MOTION": 2.00567271, "ECCENTRICITY": 0.00388899, "INCLINATION": 55.049, "RA_OF_ASC_NODE": 26.5765, "ARG_OF_PERICENTER": 242.5944, "MEAN_ANOMALY": 201.8395, "EPHEMERIS_TYPE": 0, "CLASSIFICATION_TYPE": "U", "NORAD_CAT_ID": 26360, "ELEMENT_SET_NO": 999, "REV_AT_EPOCH": 18766, "BSTAR": 0, "MEAN_MOTION_DOT": -7e-07, "MEAN_MOTION_DDOT": 0}, "tle": {"line1": "1 26360U 00025A   25353.20245417 -.00000070  00000+0  00000+0 0  9993", "line2": "2 26360  55.0490  26.5765 0038889 242.5944 201.8395  2.00567271187665"}}, "geometry": {"type": "Point", "coordinates": [150.86474242978082, 49.75537840631387]}}, {"type": "Feature", "properties": {"norad_id": 26407, "name": "GPS BIIR-5  (PRN 22)", "group": "gps-ops", "lat": -37.76622010344645, "lon": -170.72962096932682, "alt_km": 19857.731044472526, "timestamp": "2025-12-20T05:41:50.288949+00:00", "meta": {"OBJECT_NAME": "GPS BIIR-5  (PRN 22)", "OBJECT_ID": "2000-040A", "EPOCH": "2025-12-19T13:13:50.096064", "MEAN_MOTION": 2.00568112, "ECCENTRICITY": 0.012564, "INCLINATION": 54.8893, "RA_OF_ASC_NODE": 222.2981, "ARG_OF_PERICENTER": 301.9249, "MEAN_ANOMALY": 234.0274, "EPHEMERIS_TYPE": 0, "CLASSIFICATION_TYPE": "U", "NORAD_CAT_ID": 26407, "ELEMENT_SET_NO": 999, "REV_AT_EPOCH": 18634, "BSTAR": 0, "MEAN_MOTION_DOT": 7.5e-07, "MEAN_MOTION_DDOT": 0}, "tle": {"line1": "1 26407U 00040A   25353.55127426  .00000075  00000+0  00000+0 0  9993", "line2": "2 26407  54.8893 222.2981 0125640 301.9249 234.0274  2.00568112186349"}}, "geometry": {"type": "Point", "coordinates": [-170.72962096932682, -37.76622010344645]}}, {"type": "Feature", "properties": {"norad_id": 27663, "name": "GPS BIIR-8  (PRN 16)", "group": "gps-ops", "lat": 54.87726978973059, "lon": -50.94645059690515, "alt_km": 19856.920231987577, "timestamp": "2025-12-20T05:41:50.288963+00:00", "meta": {"OBJECT_NAME": "GPS BIIR-8  (PRN 16)", "OBJECT_ID": "2003-005A", "EPOCH": "2025-12-19T09:46:33.318048", "MEAN_MOTION": 2.00570594, "ECCENTRICITY": 0.014769, "INCLINATION": 54.9218, "RA_OF_ASC_NODE": 222.113, "ARG_OF_PERICENTER": 51.8916, "MEAN_ANOMALY": 156.0709, "EPHEMERIS_TYPE": 0, "CLASSIFICATION_TYPE": "U", "NORAD_CAT_ID": 27663, "ELEMENT_SET_NO": 999, "REV_AT_EPOCH": 16770, "BSTAR": 0, "MEAN_MOTION_DOT": 7.6e-07, "MEAN_MOTION_DDOT": 0}, "tle": {"line1": "1 27663U 03005A   25353.40733007  .00000076  00000+0  00000+0 0  9995", "line2": "2 27663  54.9218 222.1130 0147690  51.8916 156.0709  2.00570594167704"}}, "geometry": {"type": "Point", "coordinates": [-50.94645059690515, 54.87726978973059]}}, {"type": "Feature", "properties": {"norad_id": 28190, "name": "GPS BIIR-11 (PRN 19)", "group": "gps-ops", "lat": -48.94734698082928, "lon": 156.41049651733925, "alt_km": 20131.175439666607, "timestamp": "2025-12-20T05:41:50.288976+00:00", "meta": {"OBJECT_NAME": "GPS BIIR-11 (PRN 19)", "OBJECT_ID": "2004-009A", "EPOCH": "2025-12-18T01:19:43.105728", "MEAN_MOTION": 2.00560667, "ECCENTRICITY": 0.01084092, "INCLINATION": 54.9808, "RA_OF_ASC_NODE": 283.0048, "ARG_OF_PERICENTER": 167.7197, "MEAN_ANOMALY": 302.5438, "EPHEMERIS_TYPE": 0, "CLASSIFICATION_TYPE": "U", "NORAD_CAT_ID": 28190, "ELEMENT_SET_NO": 999, "REV_AT_EPOCH": 15931, "BSTAR": 0, "MEAN_MOTION_DOT": -5.1e-07, "MEAN_MOTION_DDOT": 0}, "tle": {"line1": "1 28190U 04009A   25352.05536002 -.00000051  00000+0  00000+0 0  9996", "line2": "2 28190  54.9808 283.0048 0108409 167.7197 302.5438  2.00560667159317"}}, "geometry": {"type": "Point", "coordinates": [156.41049651733925, -48.94734698082928]}}, {"type": "Feature", "properties": {"norad_id": 28474, "name": "GPS BIIR-13 (PRN 02)", "group": "gps-ops", "lat": -41.64697477268665, "lon": -66.04422524198036, "alt_km": 19732.637385731417, "timestamp": "2025-12-20T05:41:50.288988+00:00", "meta": {"OBJECT_NAME": "GPS BIIR-13 (PRN 02)", "OBJECT_ID": "2004-045A", "EPOCH": "2025-12-19T06:56:25.037088", "MEAN_MOTION": 2.00569921, "ECCENTRICITY": 0.0170886, "INCLINATION": 55.2374, "RA_OF_ASC_NODE": 332.1423, "ARG_OF_PERICENTER": 309.5384, "MEAN_ANOMALY": 31.8922, "EPHEMERIS_TYPE": 0, "CLASSIFICATION_TYPE": "U", "NORAD_CAT_ID": 28474, "ELEMENT_SET_NO": 999, "REV_AT_EPOCH": 15481, "BSTAR": 0, "MEAN_MOTION_DOT": -8.2e-07, "MEAN_MOTION_DDOT": 0}, "tle": {"line1": "1 28474U 04045A   25353.28917867 -.00000082  00000+0  00000+0 0  9993", "line2": "2 28474  55.2374 332.1423 0170886 309.5384  31.8922  2.00569921154811"}}, "geometry": {"type": "Point", "coordinates": [-66.04422524198036, -41.64697477268665]}}, {"type": "Feature", "properties": {"norad_id": 28874, "name": "GPS BIIRM-1 (PRN 17)", "group": "gps-ops", "lat": -54.67465121817935, "lon": -179.1372391427843, "alt_km": 19881.283850409753, "timestamp": "2025-12-20T05:41:50.289000+00:00", "meta": {"OBJECT_NAME": "GPS BIIRM-1 (PRN 17)", "OBJECT_ID": "2005-038A", "EPOCH": "2025-12-19T02:51:41.554944", "MEAN_MOTION": 2.00578076, "ECCENTRICITY": 0.01314439, "INCLINATION": 55.0262, "RA_OF_ASC_NODE": 280.4441, "ARG_OF_PERICENTER": 293.6931, "MEAN_ANOMALY": 244.1239, "EPHEMERIS_TYPE": 0, "CLASSIFICATION_TYPE": "U", "NORAD_CAT_ID": 28874, "ELEMENT_SET_NO": 999, "REV_AT_EPOCH": 14822, "BSTAR": 0, "MEAN_MOTION_DOT": -3.7e-07, "MEAN_MOTION_DDOT": 0}, "tle": {"line1": "1 28874U 05038A   25353.11923096 -.00000037  00000+0  00000+0 0  9993", "line2": "2 28874  55.0262 280.4441 0131443 293.6931 244.1239  2.00578076148220"}}, "geometry": {"type": "Point", "coordinates": [-179.1372391427843, -54.67465121817935]}}, {"type": "Feature", "properties": {"norad_id": 29486, "name": "GPS BIIRM-2 (PRN 31)", "group": "gps-ops", "lat": 9.037482233737045, "lon": -28.040790233059187, "alt_km": 20307.76949097235, "timestamp": "2025-12-20T05:41:50.289012+00:00", "meta": {"OBJECT_NAME": "GPS BIIRM-2 (PRN 31)", "OBJECT_ID": "2006-042A", "EPOCH": "2025-12-19T11:20:28.184352", "MEAN_MOTION": 2.00553919, "ECCENTRICITY": 0.0107309, "INCLINATION": 54.695, "RA_OF_ASC_NODE": 158.4736, "ARG_OF_PERICENTER": 52.1217, "MEAN_ANOMALY": 283.3875, "EPHEMERIS_TYPE": 0, "CLASSIFICATION_TYPE": "U", "NORAD_CAT_ID": 29486, "ELEMENT_SET_NO": 999, "REV_AT_EPOCH": 14078, "BSTAR": 0, "MEAN_MOTION_DOT": 6.9e-07, "MEAN_MOTION_DDOT": 0}, "tle": {"line1": "1 29486U 06042A   25353.47254843  .00000069  00000+0  00000+0 0  9999", "line2": "2 29486  54.6950 158.4736 0107309  52.1217 283.3875  2.00553919140782"}}, "geometry": {"type": "Point", "coordinates": [-28.040790233059187, 9.037482233737045]}}, {"type": "Feature", "properties": {"norad_id": 29601, "name": "GPS BIIRM-3 (PRN 12)", "group": "gps-ops", "lat": -36.46105215927968, "lon": 72.32060091588541, "alt_km": 20361.10289178192, "timestamp": "2025-12-20T05:41:50.289024+00:00", "meta": {"OBJECT_NAME": "GPS BIIRM-3 (PRN 12)", "OBJECT_ID": "2006-052A", "EPOCH": "2025-12-18T22:17:39.799104", "MEAN_MOTION": 2.00574079, "ECCENTRICITY": 0.0087942, "INCLINATION": 54.9692, "RA_OF_ASC_NODE": 221.1525, "ARG_OF_PERICENTER": 87.5066, "MEAN_ANOMALY": 273.5974, "EPHEMERIS_TYPE": 0, "CLASSIFICATION_TYPE": "U", "NORAD_CAT_ID": 29601, "ELEMENT_SET_NO": 999, "REV_AT_EPOCH": 13979, "BSTAR": 0, "MEAN_MOTION_DOT": 7.7e-07, "MEAN_MOTION_DDOT": 0}, "tle": {"line1": "1 29601U 06052A   25352.92893286  .00000077  00000+0  00000+0 0  9997", "line2": "2 29601  54.9692 221.1525 0087942  87.5066 273.5974  2.00574079139795"}}, "geometry": {"type": "Point", "coordinates": [72.32060091588541, -36.46105215927968]}}, {"type": "Feature", "properties": {"norad_id": 32260, "name": "GPS BIIRM-4 (PRN 15)", "group": "gps-ops", "lat": 3.073846818541953, "lon": 89.69066998852608, "alt_km": 20110.385294766194, "timestamp": "2025-12-20T05:41:50.289037+00:00", "meta": {"OBJECT_NAME": "GPS BIIRM-4 (PRN 15)", "OBJECT_ID": "2007-047A", "EPOCH": "2025-12-19T17:36:20.111904", "MEAN_MOTION": 2.00564307, "ECCENTRICITY": 0.01640667, "INCLINATION": 53.9598, "RA_OF_ASC_NODE": 87.4697, "ARG_OF_PERICENTER": 85.3347, "MEAN_ANOMALY": 276.5368, "EPHEMERIS_TYPE": 0, "CLASSIFICATION_TYPE": "U", "NORAD_CAT_ID": 32260, "ELEMENT_SET_NO": 999, "REV_AT_EPOCH": 13321, "BSTAR": 0, "MEAN_MOTION_DOT": -3.5e-07, "MEAN_MOTION_DDOT": 0}, "tle": {"line1": "1 32260U 07047A   25353.73356611 -.00000035  00000+0  00000+0 0  9998", "line2": "2 32260  53.9598  87.4697 0164066  85.3347 276.5368  2.00564307133212"}}, "geometry": {"type": "Point", "coordinates": [89.69066998852608, 3.073846818541953]}}]}